[{"OBJECT_NAME":"FENGYUN 3E","OBJECT_ID":"2021-062A","EPOCH":"2026-03-09T23:36:50.973120","MEAN_MOTION":14.19894265,"ECCENTRICITY":0.00022297,"INCLINATION":98.7518,"RA_OF_ASC_NODE":73.4944,"ARG_OF_PERICENTER":41.3749,"MEAN_ANOMALY":318.7596,"EPHEMERIS_TYPE":0,"CLASSIFICATION_TYPE":"U","NORAD_CAT_ID":49008,"ELEMENT_SET_NO":999,"REV_AT_EPOCH":24250,"BSTAR":7.5486824e-5,"MEAN_MOTION_DOT":1.16e-6,"MEAN_MOTION_DDOT":0},{"OBJECT_NAME":"FENGYUN 1C DEB","OBJECT_ID":"1999-025AVX","EPOCH":"2026-03-09T21:56:41.987904","MEAN_MOTION":14.14657327,"ECCENTRICITY":0.00311997,"INCLINATION":98.6893,"RA_OF_ASC_NODE":57.7544,"ARG_OF_PERICENTER":245.1422,"MEAN_ANOMALY":144.6163,"EPHEMERIS_TYPE":0,"CLASSIFICATION_TYPE":"U","NORAD_CAT_ID":30837,"ELEMENT_SET_NO":999,"REV_AT_EPOCH":98051,"BSTAR":0.00037874404,"MEAN_MOTION_DOT":6.89e-6,"MEAN_MOTION_DDOT":0}]
